{
  "norad_id": 56816,
  "name": "STARLINK-6067",
  "history": [
    {
      "epoch": "2026-03-28T21:14:10.004064",
      "apogee_km": 574.0194350780866,
      "perigee_km": 570.0175355496422,
      "latitude_deg": 0.08626854655134528,
      "longitude_deg": -53.45555103989318,
      "semi_major_axis_km": 6950.155485313864,
      "eccentricity": 0.0002879,
      "inclination_deg": 69.998,
      "raan_deg": 275.8582,
      "arg_perigee_deg": 270.4136,
      "mean_anomaly_deg": 89.6693,
      "mean_motion_rev_day": 14.98342096
    }
  ]
}